RSP-03                  
1 65732U 98067XL  26036.47707024  .00779256  28136-3  17029-2 0  9991
2 65732  51.6176 213.1885 0006195 272.2465  87.7835 15.97597157 21814
YOTSUBA-KULOVER         
1 65941U 98067XN  26035.70384057  .00112412  00000+0  91522-3 0  9997
2 65941  51.6242 226.8855 0004119 225.2243 134.8419 15.69794881 18308
BOTAN                   
1 65942U 98067XP  26035.73745111  .00298019  00000+0  13964-2 0  9994
2 65942  51.6187 223.3215 0005573 248.4699 111.5709 15.81813889 18359
E-KAGAKU-1              
1 65943U 98067XQ  26035.70439502  .00113942  00000+0  93084-3 0  9999
2 65943  51.6262 226.8993 0003271 239.9819 120.0854 15.69709914 18307
HRC MONOBLOCK CAMERA    
1 66052U 98067XR  26035.71861746  .00045006  00000+0  57495-3 0  9992
2 66052  51.6282 231.4945 0000535   1.9112 358.1883 15.58789985 17245
HTV-X1                  
1 66174U 25241A   26036.05036301  .00011388  00000+0  21868-3 0  9991
2 66174  51.6315 233.7051 0011125  65.7526 294.4623 15.48402345   511
SZ-21 MODULE            
1 66515U 25246C   26036.38462473  .00044396  00000+0  42095-3 0  9994
2 66515  41.4761  41.8476 0003081 276.8900  83.1590 15.66107693 13006
SHENZHOU-22             
1 66645U 25272A   26036.19244547  .00018681  00000+0  23497-3 0  9999
2 66645  41.4676  45.6780 0005707   3.1658 356.9216 15.59205280267643
SOYUZ-MS 28             
1 66664U 25275A   26036.24398336  .00012313  00000+0  23569-3 0  9991
2 66664  51.6316 232.7490 0011153  66.4623 293.7536 15.48407263551306
DUPLEX                  
1 66906U 98067XS  26036.51898662  .00043351  00000+0  66290-3 0  9990
2 66906  51.6289 230.0872 0001445  84.9208 275.1948 15.53946250 10127
1998-067XT              
1 66907U 98067XT  26036.52166912  .00137299  00000+0  15875-2 0  9995
2 66907  51.6261 228.6046 0002199 196.6188 163.4734 15.60907337 10144
1998-067XU              
1 66908U 98067XU  26036.52115638  .00135365  00000+0  15635-2 0  9991
2 66908  51.6263 228.5990 0002022 196.4745 163.6183 15.60941820 10141
